#cP2015  5 25  0  0  0.00000000      96 ORBIT IGb08 HLM  IGS
## 1846  86400.00000000   900.00000000 57167 0.0000000000000
+   32   G01G02G03G04G05G06G07G08G09G10G11G12G13G14G15G16G17
+        G18G19G20G21G22G23G24G25G26G27G28G29G30G31G32  0  0
+          0  0  0  0  0  0  0  0  0  0  0  0  0  0  0  0  0
+          0  0  0  0  0  0  0  0  0  0  0  0  0  0  0  0  0
+          0  0  0  0  0  0  0  0  0  0  0  0  0  0  0  0  0
++         2  3  2  2  3  2  2  0  2  2  2  2  2  2  3  3  3
++         2  2  3  2  2  3  2  2  3  2  2  2  2  2  2  0  0
++         0  0  0  0  0  0  0  0  0  0  0  0  0  0  0  0  0
++         0  0  0  0  0  0  0  0  0  0  0  0  0  0  0  0  0
++         0  0  0  0  0  0  0  0  0  0  0  0  0  0  0  0  0
%c G  cc GPS ccc cccc cccc cccc cccc ccccc ccccc ccccc ccccc
%c cc cc ccc ccc cccc cccc cccc cccc ccccc ccccc ccccc ccccc
%f  1.2500000  1.025000000  0.00000000000  0.000000000000000
%f  0.0000000  0.000000000  0.00000000000  0.000000000000000
%i    0    0    0    0      0      0      0      0         0
%i    0    0    0    0      0      0      0      0         0
/* RAPID ORBIT COMBINATION FROM WEIGHTED AVERAGE OF:        
/* cod emr esa gfz jpl ngs sio usn                          
/* REFERENCED TO IGS TIME (IGST) AND TO WEIGHTED MEAN POLE: 
/* PCV:IGS08_1844 OL/AL:FES2004  NONE     Y  ORB:CMB CLK:CMB
*  2015  5 25 11 15  0.00000000
PG01 -14205.919440   5905.520555  21583.859518     -5.151632  2  7  5 101       
PG02  14533.166539  16977.456625 -14312.706066    567.967041  9  6  7  99       
PG03 -22295.573888  12411.215331   7454.801811    335.708343  8  6  7  39       
PG04 -16145.696337  -4897.185379  20246.671242    -16.159129  5  6  4 119       
PG05  16617.114193   4815.982225 -20247.041310   -237.394953  5  7  3  63       
PG06   6643.367790  25616.984431  -2307.355750    168.926792  9  5  2  93       
PG07  -7682.375414  19648.787305 -15800.108442    464.417821  5  6  4 100       
PG08   -742.249483 -17100.028294 -20432.255333 999999.999999
PG09 -14170.544864  10091.852026 -20080.244277   -161.420589  8  4  8 103       
PG10   -962.603074  18888.444664 -18868.781463   -176.320325  7  3  5 118       
PG11 -17672.961749    677.385459  19317.057816   -580.553190  6  7  4 109       
PG12  22554.076440  -9370.397836  10058.870406    295.846130 10  2  9  83       
PG13  22921.887593  13011.900346  -2823.407306   -117.484751  5  8  7 120       
PG14  -5556.235352 -17234.344154  19723.542248     60.942340  3  5  8  80       
PG15  25777.932171   2543.163437   6494.381840   -251.201925 11  8  8  77       
PG16 -15612.005510  -5412.680873 -20959.630656   -125.698846 10  9  6 101       
PG17   5541.133374  16911.127776  20077.861674   -172.809677  7  4  5 102       
PG18  12443.694526 -21307.283264   9919.308365    404.141255  9  6  6  87       
PG19 -25156.466429  -7773.116893   4872.452286   -511.456737  9  5  7 107       
PG20  19513.414351   -118.682831 -18266.418061    323.269080  8  8  1  89       
PG21   5439.744739 -21756.498022 -13243.550336   -449.262662  5  4  5  91       
PG22   1694.122567 -19725.442382  17860.900989    353.935706  4  6  5  97       
PG23 -22623.780406   2608.704501 -13873.282379   -110.590995  9 10  8  77       
PG24  15100.091075  -2819.651192  21630.582844    -48.842162  6  6  6  96       
PG25  19198.155398 -18152.012621  -1692.398644    -32.745459  4  3  4  90       
PG26  -6827.338038 -14013.652240 -21511.851314     30.604282  9  9  7 110       
PG27 -22783.480301 -12306.369187  -6199.051199     74.406737  9  2  7 106       
PG28  -7572.828149  19553.374221  16867.415395    442.214357  9  6  7  96       
PG29  16115.213727  -7812.828408 -19575.105561    612.630283  6  8  5  77       
PG30  -1471.020439  25726.520495  -6307.923557    -54.536909  4  4  5 118       
PG31  -7836.449565 -24502.901348  -5718.950867    314.901225  6  5  4  98       
PG32 -19747.585863  -1098.635353  17447.392439   -142.417929  7  8  6  69       
*  2015  5 25 11 30  0.00000000
PG01 -14764.245714   3477.801320  21752.785993     -5.151163  1  7  5  92       
PG02  14705.666955  18540.591594 -12123.972880    567.969137  9  6  6 101       
PG03 -21721.945732  11559.277714  10062.879734    335.716485  8  7  7  78       
PG04 -16589.768347  -7179.746698  19220.879577    -16.160430  6  6  4 111       
PG05  14953.457471   6483.043343 -21048.087340   -237.390648  5  6  4  89       
PG06   6420.470679  25771.630856    547.822512    168.934860  9  5  3  92       
PG07  -8232.071701  17777.510148 -17653.817251    464.419870  6  6  4 104       
PG08    983.604676 -18510.895858 -19118.190185 999999.999999
PG09 -16265.395620   9332.814220 -18821.704829   -161.425759  9  4  8 109       
PG10  -2578.949395  20115.010967 -17317.794116   -176.320468  7  3  5 114       
PG11 -18749.859673  -1334.711848  18279.511021   -580.555837  7  7  3  93       
PG12  21657.334112  -8398.595237  12571.070700    295.848885 10  2  9  87       
PG13  22402.948046  13025.910359  -5659.078237   -117.487636  5  7  7  72       
PG14  -3418.765990 -16476.542800  20826.234441     60.939579  3  5  8  93       
PG15  26280.242826   2981.638658   3794.005884   -251.204024 11  8  8  68       
PG16 -13757.473060  -6957.693632 -21757.560470   -125.695458  9  9  5 109       
PG17   3364.199332  16200.191083  21116.941878   -172.811635  7  3  5 108       
PG18  13356.658919 -21717.379576   7361.568660    404.144229 10  6  6  84       
PG19 -25463.161309  -8109.801206   2062.422160   -511.457832 10  4  7 111       
PG20  18168.167704   1547.100990 -19547.465612    323.272597  7  7  1  87       
PG21   6134.813928 -20111.254650 -15307.809030   -449.265636  5  4  5 117       
PG22   3234.811461 -20902.036762  16195.489852    353.939132  5  6  4  91       
PG23 -23960.755606   1969.596429 -11610.232913   -110.593081 10 10  8  73       
PG24  15671.775385   -413.928421  21415.956786    -48.842702  6  6  6  86       
PG25  19359.124435 -18003.409995   1207.553598    -32.748991  4  1  5  90       
PG26  -5014.464067 -15624.758283 -20891.310304     30.604815  8  9  7  73       
PG27 -21901.071134 -12259.142353  -8885.582642     74.409167  9  1  7  80       
PG28  -8975.945663  20535.851090  14801.633274    442.216401  9  6  8 119       
PG29  18100.373823  -6957.374613 -18105.243792    612.632182  5  8  5  85       
PG30  -1855.191658  24899.444142  -8974.202229    -54.531802  5  3  4 121       
PG31  -7700.243011 -25048.590869  -2871.353722    314.900194  5  5  4  93       
PG32 -18202.017913  -2544.270171  18960.579718   -142.409209  7  8  6  86       
*  2015  5 25 11 45  0.00000000
PG01 -15447.286564   1086.424411  21545.684150     -5.150676  2  6  5 103       
PG02  14877.152585  19842.495547  -9727.231235    567.971268 10  6  6 116       
PG03 -20995.857167  10473.000611  12498.235738    335.724606  8  7  7  75       
PG04 -17103.339559  -9304.130608  17857.746393    -16.161988  6  6  4 109       
PG05  13326.155628   8283.345079 -21489.411458   -237.386202  7  6  5  97       
PG06   6115.334374  25627.977264   3393.578231    168.943039  9  5  3 111       
PG07  -8928.433900  15751.700519 -19197.198312    464.421953  7  7  5 110       
PG08   2512.901939 -19898.884685 -17477.708490 999999.999999
PG09 -18240.382778   8720.779233 -17239.610052   -161.430940  9  4  8 113       
PG10  -4004.894268  21285.643811 -15472.400055   -176.320833  6  3  6 119       
PG11 -19825.668984  -3187.201003  16915.023232   -580.558465  7  7  3 102       
PG12  20617.695340  -7188.501840  14863.277477    295.851604 10  3  9  93       
PG13  21589.266159  12958.196900  -8396.978523   -117.490279  5  7  6  39       
PG14  -1144.402948 -15802.488003  21579.095883     60.936988  4  4  8  97       
PG15  26502.803543   3334.838970   1029.476076   -251.206180 11  9  8  60       
PG16 -11941.063047  -8655.439504 -22185.534265   -125.692069  9  9  4 113       
PG17   1058.186038  15582.718384  21803.369517   -172.812951  7  3  5 102       
PG18  14053.942829 -21951.546538   4676.849235    404.146702 11  6  6  75       
PG19 -25488.561528  -8323.562456   -782.175040   -511.458995 10  3  6 107       
PG20  16823.340371   3370.195734 -20498.560250    323.275540  6  7  3  95       
PG21   6971.898357 -18284.255569 -17091.533458   -449.268864  6  5  6 102       
PG22   4584.557329 -22001.567702  14253.854552    353.942270  6  5  4  86       
PG23 -25069.389036   1466.258720  -9150.418440   -110.595025 10  9  7 107       
PG24  16351.479765   1914.927018  20832.029239    -48.843875  6  6  6  86       
PG25  19300.739805 -17625.377884   4086.485623    -32.752528  4  2  5  96       
PG26  -3350.357004 -17262.581868 -19911.509229     30.605275  7  9  8  99       
PG27 -20730.576324 -12189.868595 -11420.297434     74.411568  9  1  7  83       
PG28 -10144.491612  21433.480025  12489.530255    442.218644  9  6  8 113       
PG29  19952.285671  -6263.758359 -16322.755074    612.634093  6  8  5  88       
PG30  -2341.483397  23806.277076 -11485.540777    -54.526693  6  3  4 126       
PG31  -7512.653377 -25281.896619     26.791643    314.899109  5  5  5  97       
PG32 -16616.970049  -4162.031370  20141.788460   -142.400635  6  8  6 100       
EOF
